COSMOS 2419 (714)       
1 28915U 05050A   16340.77808461 -.00000012  00000-0  00000+0 0  9993
2 28915  65.4020  72.3741 0014301 352.3884  27.5965  2.13109230 85211
COSMOS 2425 (716)       
1 29670U 06062A   16341.44532235 -.00000000  00000-0  10000-3 0  9996
2 29670  65.5560 311.3591 0021962 338.3552 248.9273  2.13104944 77428
COSMOS 2426 (717)       
1 29671U 06062B   16340.64636194  .00000000  00000-0  10000-3 0  9996
2 29671  65.5737 311.4711 0016984 174.5543  19.4716  2.13103052 77419
COSMOS 2424 (715)       
1 29672U 06062C   16341.18986594  .00000000  00000-0  10000-3 0  9999
2 29672  65.5580 311.3773 0016156 173.4182 253.4581  2.13102161 77422
COSMOS 2433 (720)       
1 32275U 07052A   16340.89766896 -.00000013  00000-0  10000-3 0  9995
2 32275  65.4180  72.1443 0002639 233.8150 125.4800  2.13104979 70922
COSMOS 2432 (719)       
1 32276U 07052B   16341.45332654 -.00000016  00000-0  10000-3 0  9993
2 32276  65.4306  72.1948 0010255 335.0688  43.8902  2.13104071 70948
COSMOS 2434 (721)       
1 32393U 07065A   16341.13955306 -.00000001  00000-0  00000+0 0  9996
2 32393  65.1737 310.6099 0001805 148.5031 287.1396  2.13102834 69640
COSMOS 2436 (723)       
1 32395U 07065C   16341.09924887 -.00000001  00000-0  10000-3 0  9998
2 32395  65.1885 310.6591 0031778  30.6277  77.7180  2.12347804 69571
COSMOS 2443 (725)       
1 33379U 08046B   16339.77188961 -.00000010  00000-0  00000-0 0  9994
2 33379  65.3464  71.5838 0017039 183.3406 295.0733  2.13100567 63768
COSMOS 2456 (730)       
1 36111U 09070A   16341.30009216  .00000091  00000-0  00000+0 0  9993
2 36111  64.1784 190.1739 0003541 339.5539  29.5913  2.13102978 54319
COSMOS 2457 (733)       
1 36112U 09070B   16341.10690001  .00000090  00000-0  00000+0 0  9999
2 36112  64.1607 190.1039 0007006 151.3841 199.0133  2.13101697 54306
COSMOS 2458 (734)       
1 36113U 09070C   16341.20435374  .00000091  00000-0  10000-3 0  9997
2 36113  64.1659 190.1072 0002566  53.6721  59.1596  2.13101935 54313
COSMOS 2459 (731)       
1 36400U 10007A   16340.69382089 -.00000013  00000-0  10000-3 0  9999
2 36400  65.3264  71.2811 0026428 353.2615  73.4492  2.13102171 52653
COSMOS 2461 (735)       
1 36401U 10007B   16341.08592190 -.00000015  00000-0  10000-3 0  9992
2 36401  65.3203  71.2477 0006480  81.8345 196.2836  2.13102170 52650
COSMOS 2460 (732)       
1 36402U 10007C   16340.71247044 -.00000014  00000-0  10000-3 0  9996
2 36402  65.3100  71.2353 0001256 160.8119 232.3966  2.13101848 52650
COSMOS 2465 (737)       
1 37138U 10041B   16340.68075374 -.00000002  00000-0  00000+0 0  9994
2 37138  64.7731 310.7118 0035281 176.0003 311.0072  2.13103422 48722
COSMOS 2464 (736)       
1 37139U 10041C   16340.56554679 -.00000002  00000-0  00000-0 0  9993
2 37139  64.7800 310.7131 0022180   5.3115 217.6833  2.13102602 48722
COSMOS 2471 (701K)      
1 37372U 11009A   16341.12176838 -.00000016  00000-0  00000+0 0  9991
2 37372  65.3072  71.1699 0008303 228.2589 252.1148  2.13102831 44934
COSMOS 2474 (742)       
1 37829U 11055A   16340.89987674  .00000088  00000-0  00000-0 0  9999
2 37829  64.5026 190.6719 0006364 246.0364  36.7138  2.13101978 40296
COSMOS 2476 (744)       
1 37867U 11064A   16340.90201564  .00000088  00000-0  00000-0 0  9990
2 37867  64.4815 190.7489 0015476 242.6592  87.6141  2.13102031 39644
COSMOS 2477 (745)       
1 37868U 11064B   16341.18727914  .00000090  00000-0  00000+0 0  9996
2 37868  64.4904 190.7813 0013412 243.9096 124.4518  2.13101931 39619
COSMOS 2475 (743)       
1 37869U 11064C   16341.17689663  .00000090  00000-0  00000+0 0  9994
2 37869  64.4982 190.7714 0018497 274.3976  42.2884  2.13102182 39611
COSMOS 2485 (747)       
1 39155U 13019A   16341.14001890  .00000090  00000-0  00000+0 0  9993
2 39155  64.6518 190.7275 0015985 236.8871 321.0726  2.13102070 28129
COSMOS 2492 (754)       
1 39620U 14012A   16341.05228118 -.00000015  00000-0  10000-3 0  9991
2 39620  65.1993  71.1873 0013733 331.2486 193.0843  2.13103467 21071
COSMOS 2500 (755)       
1 40001U 14032A   16341.05756898 -.00000015  00000-0  00000+0 0  9994
2 40001  65.1397  71.1984 0007015 198.9734 192.8500  2.13102802 19297
COSMOS 2501 (702K)      
1 40315U 14075A   16341.18942286 -.00000003  00000-0  00000+0 0  9998
2 40315  64.5063 312.1004 0015750 216.0288  85.1812  2.13100356 15692
COSMOS 2514 (751)       
1 41330U 16008A   16341.01196987 -.00000015  00000-0  00000+0 0  9998
2 41330  64.9403  71.3932 0010050 209.8170 326.5122  2.13103454  6456
COSMOS 2516 (753)       
1 41554U 16032A   16341.05133730 -.00000002  00000-0  00000+0 0  9990
2 41554  64.7262 311.8174 0013727 231.2536 228.9875  2.13101644  4068
